start=new Date('2022-01-27T00:00:00.000Z').valueOf();
sats=[{"COUNTRY_CODE":"US","MEAN_MOTION_DOT":"0.00000552","OBJECT_ID":"2020-070AX","CLASSIFICATION_TYPE":"U","ELEMENT_SET_NO":"999","OBJECT_TYPE":"PAYLOAD","BSTAR":"0.00005597200000","REV_AT_EPOCH":"7315","PERIOD":"95.592","EPOCH":"2022-01-26T12:50:35.511936","LAUNCH_DATE":"2020-10-06","TIME_SYSTEM":"UTC","FILE":"3284266","MEAN_MOTION":"15.06405871","RA_OF_ASC_NODE":"69.5483","CENTER_NAME":"EARTH","MEAN_MOTION_DDOT":"0.0000000000000","OBJECT_NAME":"STARLINK-1682","MEAN_ELEMENT_THEORY":"SGP4","GP_ID":"194680016","REF_FRAME":"TEME","DECAY_DATE":null,"PERIAPSIS":"546.211","SEMIMAJOR_AXIS":"6925.331","EPHEMERIS_TYPE":"0","MEAN_ANOMALY":"281.0500","NORAD_CAT_ID":"46577","ARG_OF_PERICENTER":"79.0649","APOAPSIS":"548.180","INCLINATION":"53.0545","SITE":"AFETR","ECCENTRICITY":"0.00014220","TLE_LINE2":"2 46577  53.0545  69.5483 0001422  79.0649 281.0500 15.06405871 73151","TLE_LINE1":"1 46577U 20070AX  22026.53513324  .00000552  00000-0  55972-4 0  9990","RCS_SIZE":"LARGE"},{"DECAY_DATE":null,"REF_FRAME":"TEME","GP_ID":"194680268","MEAN_ELEMENT_THEORY":"SGP4","MEAN_MOTION_DDOT":"0.0000000000000","OBJECT_NAME":"STARLINK-1683","RA_OF_ASC_NODE":"54.9530","CENTER_NAME":"EARTH","FILE":"3284266","MEAN_MOTION":"15.06390655","TIME_SYSTEM":"UTC","LAUNCH_DATE":"2020-10-06","REV_AT_EPOCH":"7335","PERIOD":"95.593","EPOCH":"2022-01-26T10:41:11.221728","BSTAR":"0.00006540000000","OBJECT_TYPE":"PAYLOAD","ELEMENT_SET_NO":"999","CLASSIFICATION_TYPE":"U","OBJECT_ID":"2020-070AY","COUNTRY_CODE":"US","MEAN_MOTION_DOT":"0.00000693","RCS_SIZE":"LARGE","TLE_LINE1":"1 46578U 20070AY  22026.44526877  .00000693  00000-0  65400-4 0  9991","ECCENTRICITY":"0.00014670","TLE_LINE2":"2 46578  53.0553  54.9530 0001467  79.4148 280.7006 15.06390655 73351","APOAPSIS":"548.258","SITE":"AFETR","INCLINATION":"53.0553","ARG_OF_PERICENTER":"79.4148","NORAD_CAT_ID":"46578","EPHEMERIS_TYPE":"0","SEMIMAJOR_AXIS":"6925.377","MEAN_ANOMALY":"280.7006","PERIAPSIS":"546.226"},{"TLE_LINE2":"2 46579  53.0535  70.2045 0001192  77.7815 282.3308 15.06400564 73131","ECCENTRICITY":"0.00011920","ARG_OF_PERICENTER":"77.7815","INCLINATION":"53.0535","SITE":"AFETR","APOAPSIS":"548.037","TLE_LINE1":"1 46579U 20070AZ  22026.38769883  .00006856  00000-0  47872-3 0  9990","RCS_SIZE":"LARGE","MEAN_ANOMALY":"282.3308","EPHEMERIS_TYPE":"0","SEMIMAJOR_AXIS":"6925.347","PERIAPSIS":"546.386","NORAD_CAT_ID":"46579","CENTER_NAME":"EARTH","RA_OF_ASC_NODE":"70.2045","OBJECT_NAME":"STARLINK-1705","MEAN_MOTION_DDOT":"0.0000000000000","LAUNCH_DATE":"2020-10-06","MEAN_MOTION":"15.06400564","FILE":"3284266","TIME_SYSTEM":"UTC","DECAY_DATE":null,"REF_FRAME":"TEME","MEAN_ELEMENT_THEORY":"SGP4","GP_ID":"194680518","CLASSIFICATION_TYPE":"U","ELEMENT_SET_NO":"999","COUNTRY_CODE":"US","MEAN_MOTION_DOT":"0.00006856","OBJECT_ID":"2020-070AZ","PERIOD":"95.592","EPOCH":"2022-01-26T09:18:17.178912","REV_AT_EPOCH":"7313","BSTAR":"0.00047872000000","OBJECT_TYPE":"PAYLOAD"},{"GP_ID":"194679766","MEAN_ELEMENT_THEORY":"SGP4","DECAY_DATE":null,"REF_FRAME":"TEME","FILE":"3284266","TIME_SYSTEM":"UTC","MEAN_MOTION":"15.06398288","LAUNCH_DATE":"2020-10-06","OBJECT_NAME":"STARLINK-1708","MEAN_MOTION_DDOT":"0.0000000000000","CENTER_NAME":"EARTH","RA_OF_ASC_NODE":"69.7001","BSTAR":"0.00016408000000","OBJECT_TYPE":"PAYLOAD","EPOCH":"2022-01-26T11:57:30.559968","PERIOD":"95.592","REV_AT_EPOCH":"7315","OBJECT_ID":"2020-070BA","MEAN_MOTION_DOT":"0.00002163","COUNTRY_CODE":"US","CLASSIFICATION_TYPE":"U","ELEMENT_SET_NO":"999","RCS_SIZE":"LARGE","TLE_LINE1":"1 46580U 20070BA  22026.49827037  .00002163  00000-0  16408-3 0  9998","INCLINATION":"53.0542","SITE":"AFETR","APOAPSIS":"548.096","ARG_OF_PERICENTER":"80.5764","TLE_LINE2":"2 46580  53.0542  69.7001 0001266  80.5764 279.5368 15.06398288 73158","ECCENTRICITY":"0.00012660","NORAD_CAT_ID":"46580","PERIAPSIS":"546.342","MEAN_ANOMALY":"279.5368","SEMIMAJOR_AXIS":"6925.354","EPHEMERIS_TYPE":"0"},{"OBJECT_TYPE":"PAYLOAD","BSTAR":"-0.00008504900000","PERIOD":"95.591","EPOCH":"2022-01-26T09:32:11.335488","REV_AT_EPOCH":"7320","OBJECT_ID":"2020-070BB","COUNTRY_CODE":"US","MEAN_MOTION_DOT":"-0.00001549","CLASSIFICATION_TYPE":"U","ELEMENT_SET_NO":"999","GP_ID":"194679517","MEAN_ELEMENT_THEORY":"SGP4","DECAY_DATE":null,"REF_FRAME":"TEME","MEAN_MOTION":"15.06421313","FILE":"3284266","TIME_SYSTEM":"UTC","LAUNCH_DATE":"2020-10-06","MEAN_MOTION_DDOT":"0.0000000000000","OBJECT_NAME":"STARLINK-1712","CENTER_NAME":"EARTH","RA_OF_ASC_NODE":"65.1517","NORAD_CAT_ID":"46581","PERIAPSIS":"546.177","MEAN_ANOMALY":"284.3042","EPHEMERIS_TYPE":"0","SEMIMAJOR_AXIS":"6925.283","RCS_SIZE":"LARGE","TLE_LINE1":"1 46581U 20070BB  22026.39735342 -.00001549  00000-0 -85049-4 0  9992","SITE":"AFETR","INCLINATION":"53.0573","APOAPSIS":"548.119","ARG_OF_PERICENTER":"75.8103","TLE_LINE2":"2 46581  53.0573  65.1517 0001402  75.8103 284.3042 15.06421313 73206","ECCENTRICITY":"0.00014020"},{"OBJECT_TYPE":"PAYLOAD","BSTAR":"0.00026882000000","REV_AT_EPOCH":"7322","PERIOD":"95.592","EPOCH":"2022-01-26T12:22:04.117152","OBJECT_ID":"2020-070BC","COUNTRY_CODE":"US","MEAN_MOTION_DOT":"0.00003725","CLASSIFICATION_TYPE":"U","ELEMENT_SET_NO":"999","GP_ID":"194688096","MEAN_ELEMENT_THEORY":"SGP4","DECAY_DATE":null,"REF_FRAME":"TEME","FILE":"3284489","MEAN_MOTION":"15.06399590","TIME_SYSTEM":"UTC","LAUNCH_DATE":"2020-10-06","OBJECT_NAME":"STARLINK-1728","MEAN_MOTION_DDOT":"0.0000000000000","RA_OF_ASC_NODE":"64.5840","CENTER_NAME":"EARTH","NORAD_CAT_ID":"46582","PERIAPSIS":"546.366","EPHEMERIS_TYPE":"0","SEMIMAJOR_AXIS":"6925.350","MEAN_ANOMALY":"281.6937","RCS_SIZE":"LARGE","TLE_LINE1":"1 46582U 20070BC  22026.51532543  .00003725  00000-0  26882-3 0  9990","APOAPSIS":"548.063","SITE":"AFETR","INCLINATION":"53.0572","ARG_OF_PERICENTER":"78.4189","ECCENTRICITY":"0.00012250","TLE_LINE2":"2 46582  53.0572  64.5840 0001225  78.4189 281.6937 15.06399590 73220"},{"PERIAPSIS":"546.250","MEAN_ANOMALY":"278.6673","SEMIMAJOR_AXIS":"6925.309","EPHEMERIS_TYPE":"0","NORAD_CAT_ID":"46583","SITE":"AFETR","INCLINATION":"53.0527","APOAPSIS":"548.099","ARG_OF_PERICENTER":"81.4467","TLE_LINE2":"2 46583  53.0527  84.4068 0001335  81.4467 278.6673 15.06412816 72969","ECCENTRICITY":"0.00013350","RCS_SIZE":"LARGE","TLE_LINE1":"1 46583U 20070BD  22026.56506880  .00001659  00000-0  13021-3 0  9996","OBJECT_ID":"2020-070BD","MEAN_MOTION_DOT":"0.00001659","COUNTRY_CODE":"US","ELEMENT_SET_NO":"999","CLASSIFICATION_TYPE":"U","BSTAR":"0.00013021000000","OBJECT_TYPE":"PAYLOAD","EPOCH":"2022-01-26T13:33:41.944320","PERIOD":"95.591","REV_AT_EPOCH":"7296","MEAN_MOTION":"15.06412816","FILE":"3284489","TIME_SYSTEM":"UTC","LAUNCH_DATE":"2020-10-06","OBJECT_NAME":"STARLINK-1729","MEAN_MOTION_DDOT":"0.0000000000000","CENTER_NAME":"EARTH","RA_OF_ASC_NODE":"84.4068","GP_ID":"194688353","MEAN_ELEMENT_THEORY":"SGP4","REF_FRAME":"TEME","DECAY_DATE":null},{"NORAD_CAT_ID":"46584","PERIAPSIS":"546.199","EPHEMERIS_TYPE":"0","SEMIMAJOR_AXIS":"6925.292","MEAN_ANOMALY":"279.0150","RCS_SIZE":"LARGE","TLE_LINE1":"1 46584U 20070BE  22026.51900393  .00003801  00000-0  27379-3 0  9991","APOAPSIS":"548.114","SITE":"AFETR","INCLINATION":"53.0557","ARG_OF_PERICENTER":"81.0996","ECCENTRICITY":"0.00013830","TLE_LINE2":"2 46584  53.0557  64.6078 0001383  81.0996 279.0150 15.06418613 73226","BSTAR":"0.00027379000000","OBJECT_TYPE":"PAYLOAD","REV_AT_EPOCH":"7322","PERIOD":"95.591","EPOCH":"2022-01-26T12:27:21.939552","OBJECT_ID":"2020-070BE","COUNTRY_CODE":"US","MEAN_MOTION_DOT":"0.00003801","CLASSIFICATION_TYPE":"U","ELEMENT_SET_NO":"999","GP_ID":"194679267","MEAN_ELEMENT_THEORY":"SGP4","REF_FRAME":"TEME","DECAY_DATE":null,"FILE":"3284266","MEAN_MOTION":"15.06418613","TIME_SYSTEM":"UTC","LAUNCH_DATE":"2020-10-06","OBJECT_NAME":"STARLINK-1732","MEAN_MOTION_DDOT":"0.0000000000000","RA_OF_ASC_NODE":"64.6078","CENTER_NAME":"EARTH"},{"APOAPSIS":"548.195","INCLINATION":"53.0548","SITE":"AFETR","ARG_OF_PERICENTER":"79.2929","ECCENTRICITY":"0.00013820","TLE_LINE2":"2 46585  53.0548  64.8341 0001382  79.2929 280.8215 15.06391978 73211","RCS_SIZE":"LARGE","TLE_LINE1":"1 46585U 20070BF  22026.47109215  .00001069  00000-0  90687-4 0  9998","PERIAPSIS":"546.281","EPHEMERIS_TYPE":"0","SEMIMAJOR_AXIS":"6925.373","MEAN_ANOMALY":"280.8215","NORAD_CAT_ID":"46585","FILE":"3284266","MEAN_MOTION":"15.06391978","TIME_SYSTEM":"UTC","LAUNCH_DATE":"2020-10-06","OBJECT_NAME":"STARLINK-1736","MEAN_MOTION_DDOT":"0.0000000000000","RA_OF_ASC_NODE":"64.8341","CENTER_NAME":"EARTH","GP_ID":"194680017","MEAN_ELEMENT_THEORY":"SGP4","REF_FRAME":"TEME","DECAY_DATE":null,"OBJECT_ID":"2020-070BF","COUNTRY_CODE":"US","MEAN_MOTION_DOT":"0.00001069","CLASSIFICATION_TYPE":"U","ELEMENT_SET_NO":"999","OBJECT_TYPE":"PAYLOAD","BSTAR":"0.00009068700000","REV_AT_EPOCH":"7321","PERIOD":"95.593","EPOCH":"2022-01-26T11:18:22.361760"},{"ELEMENT_SET_NO":"999","CLASSIFICATION_TYPE":"U","OBJECT_ID":"2020-070BG","MEAN_MOTION_DOT":"-0.00000067","COUNTRY_CODE":"US","REV_AT_EPOCH":"7290","PERIOD":"95.592","EPOCH":"2022-01-26T12:37:58.874304","BSTAR":"0.00001440300000","OBJECT_TYPE":"PAYLOAD","MEAN_MOTION_DDOT":"0.0000000000000","OBJECT_NAME":"STARLINK-1737","RA_OF_ASC_NODE":"64.5874","CENTER_NAME":"EARTH","MEAN_MOTION":"15.06397675","FILE":"3284479","TIME_SYSTEM":"UTC","LAUNCH_DATE":"2020-10-06","REF_FRAME":"TEME","DECAY_DATE":null,"GP_ID":"194688105","MEAN_ELEMENT_THEORY":"SGP4","EPHEMERIS_TYPE":"0","SEMIMAJOR_AXIS":"6925.356","MEAN_ANOMALY":"291.0898","PERIAPSIS":"546.151","NORAD_CAT_ID":"46586","ECCENTRICITY":"0.00015440","TLE_LINE2":"2 46586  53.0552  64.5874 0001544  69.0256 291.0898 15.06397675 72901","APOAPSIS":"548.290","SITE":"AFETR","INCLINATION":"53.0552","ARG_OF_PERICENTER":"69.0256","RCS_SIZE":"LARGE","TLE_LINE1":"1 46586U 20070BG  22026.52637586 -.00000067  00000-0  14403-4 0  9992"}];
